OBJECT_NAME,OBJECT_ID,EPOCH,MEAN_MOTION,ECCENTRICITY,INCLINATION,RA_OF_ASC_NODE,ARG_OF_PERICENTER,MEAN_ANOMALY,EPHEMERIS_TYPE,CLASSIFICATION_TYPE,NORAD_CAT_ID,ELEMENT_SET_NO,REV_AT_EPOCH,BSTAR,MEAN_MOTION_DOT,MEAN_MOTION_DDOT
BEIDOU-3 M28 (C50),2023-207A,2026-06-07T02:19:46.449696,1.86229769,.0003533,55.7441,62.6436,343.2058,16.8105,0,U,58654,999,1665,0,-.41E-6,0
BEIDOU-3 M26 (C48),2023-207B,2026-06-06T21:28:10.130880,1.86229767,.0003491,55.7459,62.6370,317.5476,42.4536,0,U,58655,999,1663,0,-.41E-6,0
GSAT0225 (GALILEO 29),2024-079A,2026-06-07T17:27:12.904416,1.70474089,.0001801,55.1140,101.3451,291.6432,248.2386,0,U,59598,999,1315,0,.25E-6,0
GSAT0227 (GALILEO 30),2024-079C,2026-06-07T00:44:32.815104,1.70474095,.0001893,55.1089,101.3625,43.8479,316.1405,0,U,59600,999,1319,0,.24E-6,0
GSAT0232 (GALILEO 32),2024-167A,2026-06-07T20:22:34.230720,1.70474473,.0005964,55.1875,221.5705,224.5707,133.0586,0,U,61182,999,1071,0,.43E-6,0
GSAT0226 (GALILEO 31),2024-167B,2026-06-07T15:41:16.071072,1.70474436,.0002728,55.1863,221.5830,222.2356,106.8406,0,U,61183,999,1068,0,.43E-6,0
BEIDOU-3 M25 (C47),2024-168B,2026-06-07T19:09:27.898848,1.86230145,.0003046,54.4825,302.5694,304.6012,58.5938,0,U,61186,999,1161,0,-.56E-6,0
BEIDOU-3 M27 (C49),2024-168C,2026-06-05T23:38:51.813024,1.86230323,.0001749,54.4796,302.6153,47.7222,315.0311,0,U,61187,999,905,0,-.55E-6,0
GPS BIII-7  (PRN 01),2024-242A,2026-06-06T20:56:20.893056,2.00571511,.0017393,54.8526,334.6000,4.1910,356.8034,0,U,62339,999,1105,0,-.64E-6,0
QZS-6 (QZSS/PRN 200),2025-023A,2026-06-07T16:42:21.735360,1.00274135,.0002,0.0288,49.4098,34.7892,152.9844,0,U,62876,999,485,0,-.219E-5,0
COSMOS 2584 (704K),2025-042A,2026-06-07T06:51:38.494080,2.13103973,.0005905,65.0788,73.1386,230.6055,129.3655,0,U,63130,999,983,0,-.11E-6,0
GPS BIII-8  (PRN 21),2025-116A,2026-06-04T08:47:30.944832,2.00577081,.00084526,55.2259,31.6468,337.8257,196.1658,0,U,64202,999,761,0,-.73E-6,0
COSMOS 2596 (708K),2025-206B,2026-06-07T14:24:58.027104,2.13100779,.0011131,64.6401,315.3197,313.3132,44.6194,0,U,65590,999,570,0,-.3E-6,0
GSAT0233 (GALILEO 33),2025-302A,2026-06-06T15:54:07.553088,1.70474269,.0001324,54.3305,102.4316,236.8649,300.4651,0,U,67160,999,294,0,.23E-6,0
GSAT0234 (GALILEO 34),2025-302C,2026-06-03T20:33:01.967328,1.70474390,.0003271,54.3286,102.5103,302.9496,132.1778,0,U,67162,999,295,0,.1E-6,0
GPS BIII-9  (PRN 20),2026-017A,2026-06-05T05:33:50.638176,2.00571538,.00226637,55.0812,89.2351,257.5579,102.1794,0,U,67588,999,43137,0,.4E-7,0
GPS BIII-10 (PRN 13),2026-087A,2026-06-05T10:33:10.277856,2.00569475,.00209602,54.9639,208.2526,107.2589,248.2165,0,U,68791,999,59,0,.45E-6,0
